{
  "type": "FeatureCollection",
  "features": [
    {
      "type": "Feature",
      "properties": {
        "norad_id": 38709,
        "name": "EXACTVIEW-1 (ADS-1B)",
        "group": "resource",
        "lat": 1.9104031298566526,
        "lon": -85.9631189538865,
        "alt_km": 819.1965625314451,
        "timestamp": "2025-12-11T08:58:26.771092+00:00",
        "meta_object_name": "EXACTVIEW-1 (ADS-1B)",
        "meta_object_id": "2012-039C",
        "meta_epoch": "2025-12-11T04:46:15.881088",
        "meta_mean_motion": 14.24907086,
        "meta_eccentricity": 0.0010756,
        "meta_inclination": 98.9635,
        "meta_ra_of_asc_node": 93.5565,
        "meta_arg_of_pericenter": 358.6728,
        "meta_mean_anomaly": 1.442,
        "meta_ephemeris_type": 0,
        "meta_classification_type": "U",
        "meta_norad_cat_id": 38709,
        "meta_element_set_no": 999,
        "meta_rev_at_epoch": 69593,
        "meta_bstar": 0.00013327,
        "meta_mean_motion_dot": 2.65e-06,
        "meta_mean_motion_ddot": 0,
        "tle_line1": "1 38709U 12039C   25345.19879492  .00000265  00000+0  13327-3 0  9991",
        "tle_line2": "2 38709  98.9635  93.5565 0010756 358.6728   1.4420 14.24907086695934"
      },
      "geometry": {
        "type": "Point",
        "coordinates": [
          -85.9631189538865,
          1.9104031298566526
        ]
      }
    },
    {
      "type": "Feature",
      "properties": {
        "norad_id": 38755,
        "name": "SPOT 6",
        "group": "resource",
        "lat": 40.32535969260807,
        "lon": 43.19014607064348,
        "alt_km": 694.09606254966,
        "timestamp": "2025-12-11T08:58:26.771116+00:00",
        "meta_object_name": "SPOT 6",
        "meta_object_id": "2012-047A",
        "meta_epoch": "2025-12-11T03:50:54.246048",
        "meta_mean_motion": 14.58600581,
        "meta_eccentricity": 0.0001102,
        "meta_inclination": 98.1569,
        "meta_ra_of_asc_node": 49.9734,
        "meta_arg_of_pericenter": 97.0961,
        "meta_mean_anomaly": 263.0363,
        "meta_ephemeris_type": 0,
        "meta_classification_type": "U",
        "meta_norad_cat_id": 38755,
        "meta_element_set_no": 999,
        "meta_rev_at_epoch": 70564,
        "meta_bstar": 0.00013152,
        "meta_mean_motion_dot": 5.67e-06,
        "meta_mean_motion_ddot": 0,
        "tle_line1": "1 38755U 12047A   25345.16035007  .00000567  00000+0  13152-3 0  9995",
        "tle_line2": "2 38755  98.1569  49.9734 0001102  97.0961 263.0363 14.58600581705643"
      },
      "geometry": {
        "type": "Point",
        "coordinates": [
          43.19014607064348,
          40.32535969260807
        ]
      }
    },
    {
      "type": "Feature",
      "properties": {
        "norad_id": 39019,
        "name": "PLEIADES 1B",
        "group": "resource",
        "lat": -59.33998407360749,
        "lon": 72.08757144331508,
        "alt_km": 705.6595649791916,
        "timestamp": "2025-12-11T08:58:26.771128+00:00",
        "meta_object_name": "PLEIADES 1B",
        "meta_object_id": "2012-068A",
        "meta_epoch": "2025-12-11T04:18:39.776256",
        "meta_mean_motion": 14.58550088,
        "meta_eccentricity": 0.0001216,
        "meta_inclination": 98.1791,
        "meta_ra_of_asc_node": 57.8555,
        "meta_arg_of_pericenter": 82.2893,
        "meta_mean_anomaly": 277.8444,
        "meta_ephemeris_type": 0,
        "meta_classification_type": "U",
        "meta_norad_cat_id": 39019,
        "meta_element_set_no": 999,
        "meta_rev_at_epoch": 69344,
        "meta_bstar": 0.00012612,
        "meta_mean_motion_dot": 5.41e-06,
        "meta_mean_motion_ddot": 0,
        "tle_line1": "1 39019U 12068A   25345.17962704  .00000541  00000+0  12612-3 0  9998",
        "tle_line2": "2 39019  98.1791  57.8555 0001216  82.2893 277.8444 14.58550088693442"
      },
      "geometry": {
        "type": "Point",
        "coordinates": [
          72.08757144331508,
          -59.33998407360749
        ]
      }
    },
    {
      "type": "Feature",
      "properties": {
        "norad_id": 39030,
        "name": "GOKTURK 2",
        "group": "resource",
        "lat": 71.2991106277663,
        "lon": 163.57114738582996,
        "alt_km": 636.7642964629767,
        "timestamp": "2025-12-11T08:58:26.771139+00:00",
        "meta_object_name": "GOKTURK 2",
        "meta_object_id": "2012-073A",
        "meta_epoch": "2025-12-11T03:45:41.420160",
        "meta_mean_motion": 14.75287273,
        "meta_eccentricity": 9.6e-05,
        "meta_inclination": 97.6891,
        "meta_ra_of_asc_node": 186.888,
        "meta_arg_of_pericenter": 100.869,
        "meta_mean_anomaly": 259.2628,
        "meta_ephemeris_type": 0,
        "meta_classification_type": "U",
        "meta_norad_cat_id": 39030,
        "meta_element_set_no": 999,
        "meta_rev_at_epoch": 69678,
        "meta_bstar": 0.00013776,
        "meta_mean_motion_dot": 8.86e-06,
        "meta_mean_motion_ddot": 0,
        "tle_line1": "1 39030U 12073A   25345.15672940  .00000886  00000+0  13776-3 0  9999",
        "tle_line2": "2 39030  97.6891 186.8880 0000960 100.8690 259.2628 14.75287273696781"
      },
      "geometry": {
        "type": "Point",
        "coordinates": [
          163.57114738582996,
          71.2991106277663
        ]
      }
    },
    {
      "type": "Feature",
      "properties": {
        "norad_id": 39084,
        "name": "LANDSAT 8",
        "group": "resource",
        "lat": 61.98706395223262,
        "lon": -110.79107661892574,
        "alt_km": 695.7956478840833,
        "timestamp": "2025-12-11T08:58:26.771150+00:00",
        "meta_object_name": "LANDSAT 8",
        "meta_object_id": "2013-008A",
        "meta_epoch": "2025-12-11T05:08:37.576320",
        "meta_mean_motion": 14.57111504,
        "meta_eccentricity": 0.0001097,
        "meta_inclination": 98.2074,
        "meta_ra_of_asc_node": 53.3103,
        "meta_arg_of_pericenter": 87.7573,
        "meta_mean_anomaly": 272.3751,
        "meta_ephemeris_type": 0,
        "meta_classification_type": "U",
        "meta_norad_cat_id": 39084,
        "meta_element_set_no": 999,
        "meta_rev_at_epoch": 67052,
        "meta_bstar": 0.00015057,
        "meta_mean_motion_dot": 6.33e-06,
        "meta_mean_motion_ddot": 0,
        "tle_line1": "1 39084U 13008A   25345.21432380  .00000633  00000+0  15057-3 0  9990",
        "tle_line2": "2 39084  98.2074  53.3103 0001097  87.7573 272.3751 14.57111504670521"
      },
      "geometry": {
        "type": "Point",
        "coordinates": [
          -110.79107661892574,
          61.98706395223262
        ]
      }
    },
    {
      "type": "Feature",
      "properties": {
        "norad_id": 39086,
        "name": "SARAL",
        "group": "resource",
        "lat": -41.61620812732123,
        "lon": -18.358287573859805,
        "alt_km": 789.8192368516166,
        "timestamp": "2025-12-11T08:58:26.771161+00:00",
        "meta_object_name": "SARAL",
        "meta_object_id": "2013-009A",
        "meta_epoch": "2025-12-11T04:35:19.711104",
        "meta_mean_motion": 14.32756153,
        "meta_eccentricity": 0.000284,
        "meta_inclination": 98.5503,
        "meta_ra_of_asc_node": 169.1419,
        "meta_arg_of_pericenter": 111.4806,
        "meta_mean_anomaly": 248.6681,
        "meta_ephemeris_type": 0,
        "meta_classification_type": "U",
        "meta_norad_cat_id": 39086,
        "meta_element_set_no": 999,
        "meta_rev_at_epoch": 66868,
        "meta_bstar": 9.1073e-05,
        "meta_mean_motion_dot": 2.04e-06,
        "meta_mean_motion_ddot": 0,
        "tle_line1": "1 39086U 13009A   25345.19120036  .00000204  00000+0  91073-4 0  9999",
        "tle_line2": "2 39086  98.5503 169.1419 0002840 111.4806 248.6681 14.32756153668680"
      },
      "geometry": {
        "type": "Point",
        "coordinates": [
          -18.358287573859805,
          -41.61620812732123
        ]
      }
    },
    {
      "type": "Feature",
      "properties": {
        "norad_id": 39150,
        "name": "GAOFEN-1",
        "group": "resource",
        "lat": 34.698726275344846,
        "lon": -118.40304320294864,
        "alt_km": 625.350983704936,
        "timestamp": "2025-12-11T08:58:26.771172+00:00",
        "meta_object_name": "GAOFEN-1",
        "meta_object_id": "2013-018A",
        "meta_epoch": "2025-12-11T05:04:04.732896",
        "meta_mean_motion": 14.76527608,
        "meta_eccentricity": 0.0018102,
        "meta_inclination": 97.9324,
        "meta_ra_of_asc_node": 55.897,
        "meta_arg_of_pericenter": 147.7195,
        "meta_mean_anomaly": 212.5127,
        "meta_ephemeris_type": 0,
        "meta_classification_type": "U",
        "meta_norad_cat_id": 39150,
        "meta_element_set_no": 999,
        "meta_rev_at_epoch": 68050,
        "meta_bstar": 0.00010642,
        "meta_mean_motion_dot": 6.93e-06,
        "meta_mean_motion_ddot": 0,
        "tle_line1": "1 39150U 13018A   25345.21116589  .00000693  00000+0  10642-3 0  9996",
        "tle_line2": "2 39150  97.9324  55.8970 0018102 147.7195 212.5127 14.76527608680509"
      },
      "geometry": {
        "type": "Point",
        "coordinates": [
          -118.40304320294864,
          34.698726275344846
        ]
      }
    }
  ]
}